start=new Date('2022-08-14T00:00:00.000Z').valueOf();
sats=[{"OBJECT_TYPE":"PAYLOAD","INCLINATION":"53.2174","REV_AT_EPOCH":"130","EPOCH":"2022-08-13T22:00:00.999936","BSTAR":"-0.04126300000000","MEAN_MOTION":"15.30385139","TLE_LINE1":"1 52989U 22076D   22225.91667824 -.01122059  00000-0 -41263-1 0  9995","PERIOD":"94.094","COUNTRY_CODE":"US","RCS_SIZE":"LARGE","SITE":"AFETR","TIME_SYSTEM":"UTC","OBJECT_ID":"2022-076D","CLASSIFICATION_TYPE":"U","MEAN_MOTION_DOT":"-0.01122059","PERIAPSIS":"473.548","NORAD_CAT_ID":"52989","GP_ID":"210166691","MEAN_MOTION_DDOT":"0.0000000000000","EPHEMERIS_TYPE":"0","DECAY_DATE":null,"ECCENTRICITY":"0.00016290","FILE":"3535825","MEAN_ELEMENT_THEORY":"SGP4","ELEMENT_SET_NO":"999","LAUNCH_DATE":"2022-07-07","REF_FRAME":"TEME","TLE_LINE2":"2 52989  53.2174 197.6444 0001629  50.4944 173.8313 15.30385139  1304","SEMIMAJOR_AXIS":"6852.799","APOAPSIS":"475.781","ARG_OF_PERICENTER":"50.4944","MEAN_ANOMALY":"173.8313","RA_OF_ASC_NODE":"197.6444","OBJECT_NAME":"STARLINK-4293","CENTER_NAME":"EARTH"},{"OBJECT_TYPE":"PAYLOAD","INCLINATION":"53.2173","BSTAR":"-0.04086900000000","EPOCH":"2022-08-13T22:00:00.999936","REV_AT_EPOCH":"130","SITE":"AFETR","COUNTRY_CODE":"US","RCS_SIZE":"LARGE","PERIOD":"94.075","MEAN_MOTION":"15.30690985","TLE_LINE1":"1 52990U 22076E   22225.91667824 -.01121992  00000-0 -40869-1 0  9993","PERIAPSIS":"472.709","CLASSIFICATION_TYPE":"U","MEAN_MOTION_DOT":"-0.01121992","OBJECT_ID":"2022-076E","TIME_SYSTEM":"UTC","NORAD_CAT_ID":"52990","ECCENTRICITY":"0.00015210","FILE":"3535825","DECAY_DATE":null,"MEAN_MOTION_DDOT":"0.0000000000000","EPHEMERIS_TYPE":"0","GP_ID":"210166822","LAUNCH_DATE":"2022-07-07","ELEMENT_SET_NO":"999","MEAN_ELEMENT_THEORY":"SGP4","CENTER_NAME":"EARTH","OBJECT_NAME":"STARLINK-4286","RA_OF_ASC_NODE":"197.6506","MEAN_ANOMALY":"177.4198","APOAPSIS":"474.794","ARG_OF_PERICENTER":"56.9821","TLE_LINE2":"2 52990  53.2173 197.6506 0001521  56.9821 177.4198 15.30690985  1309","REF_FRAME":"TEME","SEMIMAJOR_AXIS":"6851.886"},{"NORAD_CAT_ID":"52991","EPHEMERIS_TYPE":"0","MEAN_MOTION_DDOT":"0.0000000000000","GP_ID":"210167084","ECCENTRICITY":"0.00014960","FILE":"3535825","DECAY_DATE":null,"MEAN_ELEMENT_THEORY":"SGP4","LAUNCH_DATE":"2022-07-07","ELEMENT_SET_NO":"999","ARG_OF_PERICENTER":"57.5825","APOAPSIS":"473.864","MEAN_ANOMALY":"186.7556","TLE_LINE2":"2 52991  53.2173 197.6572 0001496  57.5825 186.7556 15.30996801  1302","REF_FRAME":"TEME","SEMIMAJOR_AXIS":"6850.974","CENTER_NAME":"EARTH","OBJECT_NAME":"STARLINK-4285","RA_OF_ASC_NODE":"197.6572","OBJECT_TYPE":"PAYLOAD","INCLINATION":"53.2173","REV_AT_EPOCH":"130","BSTAR":"-0.04047600000000","EPOCH":"2022-08-13T22:00:00.999936","PERIOD":"94.056","MEAN_MOTION":"15.30996801","TLE_LINE1":"1 52991U 22076F   22225.91667824 -.01121892  00000-0 -40476-1 0  9997","SITE":"AFETR","COUNTRY_CODE":"US","RCS_SIZE":"LARGE","CLASSIFICATION_TYPE":"U","MEAN_MOTION_DOT":"-0.01121892","OBJECT_ID":"2022-076F","TIME_SYSTEM":"UTC","PERIAPSIS":"471.814"},{"EPOCH":"2022-08-13T22:00:00.999936","BSTAR":"-0.04007900000000","REV_AT_EPOCH":"130","OBJECT_TYPE":"PAYLOAD","INCLINATION":"53.2174","PERIAPSIS":"470.927","OBJECT_ID":"2022-076G","TIME_SYSTEM":"UTC","CLASSIFICATION_TYPE":"U","MEAN_MOTION_DOT":"-0.01121802","COUNTRY_CODE":"US","RCS_SIZE":"LARGE","SITE":"AFETR","MEAN_MOTION":"15.31308799","TLE_LINE1":"1 52992U 22076G   22225.91667824 -.01121802  00000-0 -40079-1 0  9998","PERIOD":"94.037","DECAY_DATE":null,"ECCENTRICITY":"0.00014330","FILE":"3535825","GP_ID":"210166953","MEAN_MOTION_DDOT":"0.0000000000000","EPHEMERIS_TYPE":"0","NORAD_CAT_ID":"52992","RA_OF_ASC_NODE":"197.6636","CENTER_NAME":"EARTH","OBJECT_NAME":"STARLINK-4269","TLE_LINE2":"2 52992  53.2174 197.6636 0001433  61.8529 192.0736 15.31308799  1309","REF_FRAME":"TEME","SEMIMAJOR_AXIS":"6850.043","APOAPSIS":"472.890","MEAN_ANOMALY":"192.0736","ARG_OF_PERICENTER":"61.8529","ELEMENT_SET_NO":"999","LAUNCH_DATE":"2022-07-07","MEAN_ELEMENT_THEORY":"SGP4"},{"RA_OF_ASC_NODE":"194.6429","OBJECT_NAME":"STARLINK-4264","CENTER_NAME":"EARTH","SEMIMAJOR_AXIS":"6729.838","REF_FRAME":"TEME","TLE_LINE2":"2 52993  53.2173 194.6429 0002125  21.6171 246.1323 15.72518976  1300","APOAPSIS":"353.133","MEAN_ANOMALY":"246.1323","ARG_OF_PERICENTER":"21.6171","ELEMENT_SET_NO":"999","LAUNCH_DATE":"2022-07-07","MEAN_ELEMENT_THEORY":"SGP4","DECAY_DATE":null,"FILE":"3535825","ECCENTRICITY":"0.00021250","GP_ID":"210166298","EPHEMERIS_TYPE":"0","MEAN_MOTION_DDOT":"0.0000000000000","NORAD_CAT_ID":"52993","PERIAPSIS":"350.272","OBJECT_ID":"2022-076H","TIME_SYSTEM":"UTC","MEAN_MOTION_DOT":"-0.01053693","CLASSIFICATION_TYPE":"U","RCS_SIZE":"LARGE","COUNTRY_CODE":"US","SITE":"AFETR","TLE_LINE1":"1 52993U 22076H   22225.91667824 -.01053693  00000-0 -85877-2 0  9997","MEAN_MOTION":"15.72518976","PERIOD":"91.573","EPOCH":"2022-08-13T22:00:00.999936","BSTAR":"-0.00858770000000","REV_AT_EPOCH":"130","INCLINATION":"53.2173","OBJECT_TYPE":"PAYLOAD"},{"ELEMENT_SET_NO":"999","LAUNCH_DATE":"2022-07-07","MEAN_ELEMENT_THEORY":"SGP4","RA_OF_ASC_NODE":"194.6421","OBJECT_NAME":"STARLINK-4256","CENTER_NAME":"EARTH","TLE_LINE2":"2 52994  53.2173 194.6421 0002091  22.2569 246.0956 15.72525882  1308","REF_FRAME":"TEME","SEMIMAJOR_AXIS":"6729.818","APOAPSIS":"353.090","MEAN_ANOMALY":"246.0956","ARG_OF_PERICENTER":"22.2569","NORAD_CAT_ID":"52994","DECAY_DATE":null,"ECCENTRICITY":"0.00020910","FILE":"3535825","GP_ID":"210166430","EPHEMERIS_TYPE":"0","MEAN_MOTION_DDOT":"0.0000000000000","COUNTRY_CODE":"US","RCS_SIZE":"LARGE","SITE":"AFETR","MEAN_MOTION":"15.72525882","TLE_LINE1":"1 52994U 22076J   22225.91667824 -.01053661  00000-0 -85850-2 0  9994","PERIOD":"91.572","PERIAPSIS":"350.276","TIME_SYSTEM":"UTC","OBJECT_ID":"2022-076J","CLASSIFICATION_TYPE":"U","MEAN_MOTION_DOT":"-0.01053661","OBJECT_TYPE":"PAYLOAD","INCLINATION":"53.2173","EPOCH":"2022-08-13T22:00:00.999936","BSTAR":"-0.00858500000000","REV_AT_EPOCH":"130"},{"DECAY_DATE":null,"ECCENTRICITY":"0.00018880","FILE":"3535825","GP_ID":"210167216","MEAN_MOTION_DDOT":"0.0000000000000","EPHEMERIS_TYPE":"0","NORAD_CAT_ID":"52995","RA_OF_ASC_NODE":"194.6422","CENTER_NAME":"EARTH","OBJECT_NAME":"STARLINK-4296","TLE_LINE2":"2 52995  53.2173 194.6422 0001888  26.7941 242.7644 15.72539626  1304","REF_FRAME":"TEME","SEMIMAJOR_AXIS":"6729.779","APOAPSIS":"352.914","ARG_OF_PERICENTER":"26.7941","MEAN_ANOMALY":"242.7644","ELEMENT_SET_NO":"999","LAUNCH_DATE":"2022-07-07","MEAN_ELEMENT_THEORY":"SGP4","EPOCH":"2022-08-13T22:00:00.999936","BSTAR":"-0.00857890000000","REV_AT_EPOCH":"130","OBJECT_TYPE":"PAYLOAD","INCLINATION":"53.2173","PERIAPSIS":"350.373","TIME_SYSTEM":"UTC","OBJECT_ID":"2022-076K","CLASSIFICATION_TYPE":"U","MEAN_MOTION_DOT":"-0.01053462","COUNTRY_CODE":"US","RCS_SIZE":"LARGE","SITE":"AFETR","MEAN_MOTION":"15.72539626","TLE_LINE1":"1 52995U 22076K   22225.91667824 -.01053462  00000-0 -85789-2 0  9995","PERIOD":"91.572"},{"CLASSIFICATION_TYPE":"U","MEAN_MOTION_DOT":"-0.01053691","OBJECT_ID":"2022-076L","TIME_SYSTEM":"UTC","PERIAPSIS":"350.236","PERIOD":"91.572","MEAN_MOTION":"15.72532808","TLE_LINE1":"1 52996U 22076L   22225.91667824 -.01053691  00000-0 -85826-2 0  9992","SITE":"AFETR","COUNTRY_CODE":"US","RCS_SIZE":"LARGE","REV_AT_EPOCH":"130","BSTAR":"-0.00858260000000","EPOCH":"2022-08-13T22:00:00.999936","OBJECT_TYPE":"PAYLOAD","INCLINATION":"53.2173","APOAPSIS":"353.090","MEAN_ANOMALY":"247.3273","ARG_OF_PERICENTER":"21.6283","REF_FRAME":"TEME","TLE_LINE2":"2 52996  53.2173 194.6419 0002121  21.6283 247.3273 15.72532808  1309","SEMIMAJOR_AXIS":"6729.798","OBJECT_NAME":"STARLINK-4295","CENTER_NAME":"EARTH","RA_OF_ASC_NODE":"194.6419","MEAN_ELEMENT_THEORY":"SGP4","LAUNCH_DATE":"2022-07-07","ELEMENT_SET_NO":"999","MEAN_MOTION_DDOT":"0.0000000000000","EPHEMERIS_TYPE":"0","GP_ID":"210166561","ECCENTRICITY":"0.00021210","FILE":"3535825","DECAY_DATE":null,"NORAD_CAT_ID":"52996"},{"NORAD_CAT_ID":"52997","ECCENTRICITY":"0.00018640","FILE":"3535825","DECAY_DATE":null,"EPHEMERIS_TYPE":"0","MEAN_MOTION_DDOT":"0.0000000000000","GP_ID":"210166692","LAUNCH_DATE":"2022-07-07","ELEMENT_SET_NO":"999","MEAN_ELEMENT_THEORY":"SGP4","CENTER_NAME":"EARTH","OBJECT_NAME":"STARLINK-4301","RA_OF_ASC_NODE":"194.6401","ARG_OF_PERICENTER":"27.2490","APOAPSIS":"352.820","MEAN_ANOMALY":"244.7209","REF_FRAME":"TEME","TLE_LINE2":"2 52997  53.2174 194.6401 0001864  27.2490 244.7209 15.72567046  1309","SEMIMAJOR_AXIS":"6729.700","OBJECT_TYPE":"PAYLOAD","INCLINATION":"53.2174","BSTAR":"-0.00856870000000","EPOCH":"2022-08-13T22:00:00.999936","REV_AT_EPOCH":"130","SITE":"AFETR","COUNTRY_CODE":"US","RCS_SIZE":"LARGE","PERIOD":"91.570","MEAN_MOTION":"15.72567046","TLE_LINE1":"1 52997U 22076M   22225.91667824 -.01053441  00000-0 -85687-2 0  9991","PERIAPSIS":"350.311","CLASSIFICATION_TYPE":"U","MEAN_MOTION_DOT":"-0.01053441","OBJECT_ID":"2022-076M","TIME_SYSTEM":"UTC"},{"NORAD_CAT_ID":"52998","DECAY_DATE":null,"ECCENTRICITY":"0.00021630","FILE":"3535825","GP_ID":"210166823","MEAN_MOTION_DDOT":"0.0000000000000","EPHEMERIS_TYPE":"0","ELEMENT_SET_NO":"999","LAUNCH_DATE":"2022-07-07","MEAN_ELEMENT_THEORY":"SGP4","RA_OF_ASC_NODE":"194.6412","CENTER_NAME":"EARTH","OBJECT_NAME":"STARLINK-4254","TLE_LINE2":"2 52998  53.2173 194.6412 0002163  20.7452 249.4163 15.72546592  1304","REF_FRAME":"TEME","SEMIMAJOR_AXIS":"6729.759","MEAN_ANOMALY":"249.4163","APOAPSIS":"353.079","ARG_OF_PERICENTER":"20.7452","OBJECT_TYPE":"PAYLOAD","INCLINATION":"53.2173","EPOCH":"2022-08-13T22:00:00.999936","BSTAR":"-0.00857770000000","REV_AT_EPOCH":"130","COUNTRY_CODE":"US","RCS_SIZE":"LARGE","SITE":"AFETR","MEAN_MOTION":"15.72546592","TLE_LINE1":"1 52998U 22076N   22225.91667824 -.01053729  00000-0 -85777-2 0  9991","PERIOD":"91.571","PERIAPSIS":"350.168","OBJECT_ID":"2022-076N","TIME_SYSTEM":"UTC","CLASSIFICATION_TYPE":"U","MEAN_MOTION_DOT":"-0.01053729"}];
